[{"OBJECT_NAME":"COSMOS 2538","OBJECT_ID":"2019-039D","EPOCH":"2026-03-09T23:22:28.343424","MEAN_MOTION":15.19536029,"ECCENTRICITY":0.00437345,"INCLINATION":97.5929,"RA_OF_ASC_NODE":147.7512,"ARG_OF_PERICENTER":31.8471,"MEAN_ANOMALY":328.5393,"EPHEMERIS_TYPE":0,"CLASSIFICATION_TYPE":"U","NORAD_CAT_ID":44424,"ELEMENT_SET_NO":999,"REV_AT_EPOCH":36483,"BSTAR":0.00035711669,"MEAN_MOTION_DOT":7.713e-5,"MEAN_MOTION_DDOT":0},{"OBJECT_NAME":"STARLINK-30260","OBJECT_ID":"2023-115D","EPOCH":"2026-03-09T04:20:53.578752","MEAN_MOTION":15.27565637,"ECCENTRICITY":0.00012494,"INCLINATION":43.001,"RA_OF_ASC_NODE":4.4709,"ARG_OF_PERICENTER":260.151,"MEAN_ANOMALY":99.9201,"EPHEMERIS_TYPE":0,"CLASSIFICATION_TYPE":"U","NORAD_CAT_ID":57524,"ELEMENT_SET_NO":999,"REV_AT_EPOCH":14227,"BSTAR":0.00014594615,"MEAN_MOTION_DOT":3.754e-5,"MEAN_MOTION_DDOT":0}]
